CTC2_L_00615007-03
1 29695U 26600QU  26070.40851852  .00000000  00000+0  00000-0 0  9992
2 29695  50.0000 180.0000 0000000   0.0000 144.0000  5.03557230    17
CTC2_L_00615007-04
1 29696U 25254HL  26070.40851852  .00000000  00000+0  00000-0 0  9997
2 29696  50.0000 180.0000 0000000   0.0000 180.0000  5.03557230    18
CTC2_L_00615007-05
1 29697U 26402RG  26070.40851852  .00000000  00000+0  00000-0 0  9994
2 29697  50.0000 180.0000 0000000   0.0000 216.0000  5.03557230    19
CTC2_L_00615007-06
1 29698U 26805KL  26070.40851852  .00000000  00000+0  00000-0 0  9992
2 29698  50.0000 180.0000 0000000   0.0000 252.0000  5.03557230    10
CTC2_L_00615007-07
1 29699U 26041IK  26070.40851852  .00000000  00000+0  00000-0 0  9995
2 29699  50.0000 180.0000 0000000   0.0000 288.0000  5.03557230    10
CTC2_L_00615007-08
1 29700U 25113YH  26070.40851852  .00000000  00000+0  00000-0 0  9997
2 29700  50.0000 180.0000 0000000   0.0000 324.0000  5.03557230    14
CTC2_L_00615007-09
1 29701U 22876GQ  26070.40851852  .00000000  00000+0  00000-0 0  9991
2 29701  50.0000 180.0000 0000000   0.0000   0.0000  5.03557230    16
CTC2_L_00615007-10
1 29702U 22186EV  26070.40851852  .00000000  00000+0  00000-0 0  9996
2 29702  50.0000 180.0000 0000000   0.0000  36.0000  5.03557230    16
CTC2_L_00615008-01
1 29703U 25397J   26070.40851852  .00000000  00000+0  00000-0 0  9994
2 29703  50.0000 210.0000 0000000   0.0000  84.0000  5.03557230    14
CTC2_L_00615008-02
1 29704U 24273BG  26070.40851852  .00000000  00000+0  00000-0 0  9997
2 29704  50.0000 210.0000 0000000   0.0000 120.0000  5.03557230    16
CTC2_L_00615008-03
1 29705U 24132V   26070.40851852  .00000000  00000+0  00000-0 0  9992
2 29705  50.0000 210.0000 0000000   0.0000 156.0000  5.03557230    16
CTC2_L_00615008-04
1 29706U 22946OI  26070.40851852  .00000000  00000+0  00000-0 0  9994
2 29706  50.0000 210.0000 0000000   0.0000 192.0000  5.03557230    17
CTC2_L_00615008-05
1 29707U 25173KK  26070.40851852  .00000000  00000+0  00000-0 0  9990
2 29707  50.0000 210.0000 0000000   0.0000 228.0000  5.03557230    18
CTC2_L_00615008-06
1 29708U 24010MO  26070.40851852  .00000000  00000+0  00000-0 0  9990
2 29708  50.0000 210.0000 0000000   0.0000 264.0000  5.03557230    19
CTC2_L_00615008-07
1 29709U 23837AF  26070.40851852  .00000000  00000+0  00000-0 0  9997
2 29709  50.0000 210.0000 0000000   0.0000 300.0000  5.03557230    11
CTC2_L_00615008-08
1 29710U 26670KX  26070.40851852  .00000000  00000+0  00000-0 0  9997
2 29710  50.0000 210.0000 0000000   0.0000 336.0000  5.03557230    12
CTC2_L_00615008-09
1 29711U 22576NZ  26070.40851852  .00000000  00000+0  00000-0 0  9999
2 29711  50.0000 210.0000 0000000   0.0000  12.0000  5.03557230    14
CTC2_L_00615008-10
1 29712U 22976HX  26070.40851852  .00000000  00000+0  00000-0 0  9994
2 29712  50.0000 210.0000 0000000   0.0000  48.0000  5.03557230    14
CTC2_L_00615009-01
1 29713U 26732HV  26070.40851852  .00000000  00000+0  00000-0 0  9999
2 29713  50.0000 240.0000 0000000   0.0000  96.0000  5.03557230    11
CTC2_L_00615009-02
1 29714U 25972Y   26070.40851852  .00000000  00000+0  00000-0 0  9995
2 29714  50.0000 240.0000 0000000   0.0000 132.0000  5.03557230    13
CTC2_L_00615009-03
1 29715U 25993PL  26070.40851852  .00000000  00000+0  00000-0 0  9999
2 29715  50.0000 240.0000 0000000   0.0000 168.0000  5.03557230    13
CTC2_L_00615009-04
1 29716U 25337ZZ  26070.40851852  .00000000  00000+0  00000-0 0  9992
2 29716  50.0000 240.0000 0000000   0.0000 204.0000  5.03557230    15
CTC2_L_00615009-05
1 29717U 23301TV  26070.40851852  .00000000  00000+0  00000-0 0  9992
2 29717  50.0000 240.0000 0000000   0.0000 240.0000  5.03557230    16
CTC2_L_00615009-06
1 29718U 24457OB  26070.40851852  .00000000  00000+0  00000-0 0  9996
2 29718  50.0000 240.0000 0000000   0.0000 276.0000  5.03557230    16
CTC2_L_00615009-07
1 29719U 22683PZ  26070.40851852  .00000000  00000+0  00000-0 0  9996
2 29719  50.0000 240.0000 0000000   0.0000 312.0000  5.03557230    18
CTC2_L_00615009-08
1 29720U 23530HL  26070.40851852  .00000000  00000+0  00000-0 0  9990
2 29720  50.0000 240.0000 0000000   0.0000 348.0000  5.03557230    19
CTC2_L_00615009-09
1 29721U 24008I   26070.40851852  .00000000  00000+0  00000-0 0  9992
2 29721  50.0000 240.0000 0000000   0.0000  24.0000  5.03557230    11
CTC2_L_00615009-10
1 29722U 23323NZ  26070.40851852  .00000000  00000+0  00000-0 0  9992
2 29722  50.0000 240.0000 0000000   0.0000  60.0000  5.03557230    12
CTC2_L_00615010-01
1 29723U 24724NA  26070.40851852  .00000000  00000+0  00000-0 0  9999
2 29723  50.0000 270.0000 0000000   0.0000 108.0000  5.03557230    19
CTC2_L_00615010-02
1 29724U 25964PI  26070.40851852  .00000000  00000+0  00000-0 0  9997
2 29724  50.0000 270.0000 0000000   0.0000 144.0000  5.03557230    10
CTC2_L_00615010-03
1 29725U 25400CV  26070.40851852  .00000000  00000+0  00000-0 0  9993
2 29725  50.0000 270.0000 0000000   0.0000 180.0000  5.03557230    11
CTC2_L_00615010-04
1 29726U 26519XP  26070.40851852  .00000000  00000+0  00000-0 0  9996
2 29726  50.0000 270.0000 0000000   0.0000 216.0000  5.03557230    12
CTC2_L_00615010-05
1 29727U 25780NF  26070.40851852  .00000000  00000+0  00000-0 0  9996
2 29727  50.0000 270.0000 0000000   0.0000 252.0000  5.03557230    13
CTC2_L_00615010-06
1 29728U 25932QH  26070.40851852  .00000000  00000+0  00000-0 0  9996
2 29728  50.0000 270.0000 0000000   0.0000 288.0000  5.03557230    13
CTC2_L_00615010-07
1 29729U 24979UZ  26070.40851852  .00000000  00000+0  00000-0 0  9997
2 29729  50.0000 270.0000 0000000   0.0000 324.0000  5.03557230    15
CTC2_L_00615010-08
1 29730U 22170XK  26070.40851852  .00000000  00000+0  00000-0 0  9990
2 29730  50.0000 270.0000 0000000   0.0000   0.0000  5.03557230    18
CTC2_L_00615010-09
1 29731U 24925PH  26070.40851852  .00000000  00000+0  00000-0 0  9991
2 29731  50.0000 270.0000 0000000   0.0000  36.0000  5.03557230    18
CTC2_L_00615010-10
1 29732U 24249BA  26070.40851852  .00000000  00000+0  00000-0 0  9991
2 29732  50.0000 270.0000 0000000   0.0000  72.0000  5.03557230    19
CTC2_L_00615011-01
1 29733U 23041RB  26070.40851852  .00000000  00000+0  00000-0 0  9991
2 29733  50.0000 300.0000 0000000   0.0000 120.0000  5.03557230    18
CTC2_L_00615011-02
1 29734U 22357IW  26070.40851852  .00000000  00000+0  00000-0 0  9991
2 29734  50.0000 300.0000 0000000   0.0000 156.0000  5.03557230    18
CTC2_L_00615011-03
1 29735U 26782JF  26070.40851852  .00000000  00000+0  00000-0 0  9998
2 29735  50.0000 300.0000 0000000   0.0000 192.0000  5.03557230    19
CTC2_L_00615011-04
1 29736U 26057UF  26070.40851852  .00000000  00000+0  00000-0 0  9994
2 29736  50.0000 300.0000 0000000   0.0000 228.0000  5.03557230    10
CTC2_L_00615011-05
1 29737U 23798BP  26070.40851852  .00000000  00000+0  00000-0 0  9994
2 29737  50.0000 300.0000 0000000   0.0000 264.0000  5.03557230    11
CTC2_L_00615011-06
1 29738U 25110MD  26070.40851852  .00000000  00000+0  00000-0 0  9995
2 29738  50.0000 300.0000 0000000   0.0000 300.0000  5.03557230    13
CTC2_L_00615011-07
1 29739U 23622XO  26070.40851852  .00000000  00000+0  00000-0 0  9992
2 29739  50.0000 300.0000 0000000   0.0000 336.0000  5.03557230    13
CTC2_L_00615011-08
1 29740U 23358KL  26070.40851852  .00000000  00000+0  00000-0 0  9990
2 29740  50.0000 300.0000 0000000   0.0000  12.0000  5.03557230    16
CTC2_L_00615011-09
1 29741U 22195OA  26070.40851852  .00000000  00000+0  00000-0 0  9999
2 29741  50.0000 300.0000 0000000   0.0000  48.0000  5.03557230    16
CTC2_L_00615011-10
1 29742U 24007HW  26070.40851852  .00000000  00000+0  00000-0 0  9994
2 29742  50.0000 300.0000 0000000   0.0000  84.0000  5.03557230    17
CTC2_L_00615012-01
1 29743U 23118QK  26070.40851852  .00000000  00000+0  00000-0 0  9997
2 29743  50.0000 330.0000 0000000   0.0000 132.0000  5.03557230    15
CTC2_L_00615012-02
1 29744U 23663HH  26070.40851852  .00000000  00000+0  00000-0 0  9993
2 29744  50.0000 330.0000 0000000   0.0000 168.0000  5.03557230    15
CTC2_L_00615012-03
1 29745U 24498TW  26070.40851852  .00000000  00000+0  00000-0 0  9991
2 29745  50.0000 330.0000 0000000   0.0000 204.0000  5.03557230    17
CTC2_L_00615012-04
1 29746U 22286BM  26070.40851852  .00000000  00000+0  00000-0 0  9995
2 29746  50.0000 330.0000 0000000   0.0000 240.0000  5.03557230    18
CTC2_L_00615012-05
1 29747U 23954KC  26070.40851852  .00000000  00000+0  00000-0 0  9999
2 29747  50.0000 330.0000 0000000   0.0000 276.0000  5.03557230    18
CTC2_L_00615012-06
1 29748U 22510UM  26070.40851852  .00000000  00000+0  00000-0 0  9997
2 29748  50.0000 330.0000 0000000   0.0000 312.0000  5.03557230    10
CTC2_L_00615012-07
1 29749U 23916CQ  26070.40851852  .00000000  00000+0  00000-0 0  9999
2 29749  50.0000 330.0000 0000000   0.0000 348.0000  5.03557230    10
CTC2_L_00615012-08
1 29750U 23733QR  26070.40851852  .00000000  00000+0  00000-0 0  9998
2 29750  50.0000 330.0000 0000000   0.0000  24.0000  5.03557230    13
CTC2_L_00615012-09
1 29751U 25243SS  26070.40851852  .00000000  00000+0  00000-0 0  9997
2 29751  50.0000 330.0000 0000000   0.0000  60.0000  5.03557230    14
CTC2_L_00615012-10
1 29752U 26725AL  26070.40851852  .00000000  00000+0  00000-0 0  9994
2 29752  50.0000 330.0000 0000000   0.0000  96.0000  5.03557230    14
